[{"OBJECT_NAME":"EXO-0","OBJECT_ID":"2023-174DK","EPOCH":"2026-03-09T17:03:04.419648","MEAN_MOTION":15.32821991,"ECCENTRICITY":0.00098779,"INCLINATION":97.3864,"RA_OF_ASC_NODE":148.9039,"ARG_OF_PERICENTER":157.1125,"MEAN_ANOMALY":203.0559,"EPHEMERIS_TYPE":0,"CLASSIFICATION_TYPE":"U","NORAD_CAT_ID":59175,"ELEMENT_SET_NO":999,"REV_AT_EPOCH":12979,"BSTAR":0.00036716083,"MEAN_MOTION_DOT":0.00011582,"MEAN_MOTION_DDOT":0},{"OBJECT_NAME":"STARLINK-35075","OBJECT_ID":"2025-212AC","EPOCH":"2026-03-09T22:31:28.722432","MEAN_MOTION":15.30228075,"ECCENTRICITY":0.00010478,"INCLINATION":53.1601,"RA_OF_ASC_NODE":344.3728,"ARG_OF_PERICENTER":111.4182,"MEAN_ANOMALY":248.6931,"EPHEMERIS_TYPE":0,"CLASSIFICATION_TYPE":"U","NORAD_CAT_ID":65702,"ELEMENT_SET_NO":999,"REV_AT_EPOCH":2728,"BSTAR":0.0010826789,"MEAN_MOTION_DOT":0.00031872,"MEAN_MOTION_DDOT":0}]
